{
  "type": "FeatureCollection",
  "features": [
    {
      "type": "Feature",
      "properties": {
        "norad_id": 44334,
        "name": "EUTELSAT 7C",
        "group": "eutelsat",
        "lat": 0.0031754822076782785,
        "lon": -167.19209632307295,
        "alt_km": 35776.32598820924,
        "timestamp": "2025-12-11T07:02:23.405305+00:00",
        "meta_object_name": "EUTELSAT 7C",
        "meta_object_id": "2019-034B",
        "meta_epoch": "2025-12-10T15:17:18.757824",
        "meta_mean_motion": 1.00272724,
        "meta_eccentricity": 0.00034057,
        "meta_inclination": 0.0725,
        "meta_ra_of_asc_node": 179.3579,
        "meta_arg_of_pericenter": 62.354,
        "meta_mean_anomaly": 74.2106,
        "meta_ephemeris_type": 0,
        "meta_classification_type": "U",
        "meta_norad_cat_id": 44334,
        "meta_element_set_no": 999,
        "meta_rev_at_epoch": 494,
        "meta_bstar": 0,
        "meta_mean_motion_dot": 5.3e-07,
        "meta_mean_motion_ddot": 0,
        "tle_line1": "1 44334U 19034B   25344.63702266  .00000053  00000+0  00000+0 0  9991",
        "tle_line2": "2 44334   0.0725 179.3579 0003405  62.3540  74.2106  1.00272724  4949"
      },
      "geometry": {
        "type": "Point",
        "coordinates": [
          -167.19209632307295,
          0.0031754822076782785
        ]
      }
    },
    {
      "type": "Feature",
      "properties": {
        "norad_id": 44624,
        "name": "EUTELSAT 5 WEST B",
        "group": "eutelsat",
        "lat": -0.02326478996041196,
        "lon": -179.19055945576415,
        "alt_km": 35783.61391666529,
        "timestamp": "2025-12-11T07:02:23.405317+00:00",
        "meta_object_name": "EUTELSAT 5 WEST B",
        "meta_object_id": "2019-067A",
        "meta_epoch": "2025-12-10T21:43:38.678592",
        "meta_mean_motion": 1.00271486,
        "meta_eccentricity": 0.00034352,
        "meta_inclination": 0.063,
        "meta_ra_of_asc_node": 345.5119,
        "meta_arg_of_pericenter": 275.2352,
        "meta_mean_anomaly": 140.0368,
        "meta_ephemeris_type": 0,
        "meta_classification_type": "U",
        "meta_norad_cat_id": 44624,
        "meta_element_set_no": 999,
        "meta_rev_at_epoch": 2254,
        "meta_bstar": 0,
        "meta_mean_motion_dot": -3.7e-07,
        "meta_mean_motion_ddot": 0,
        "tle_line1": "1 44624U 19067A   25344.90530878 -.00000037  00000+0  00000+0 0  9990",
        "tle_line2": "2 44624   0.0630 345.5119 0003435 275.2352 140.0368  1.00271486 22544"
      },
      "geometry": {
        "type": "Point",
        "coordinates": [
          -179.19055945576415,
          -0.02326478996041196
        ]
      }
    },
    {
      "type": "Feature",
      "properties": {
        "norad_id": 45027,
        "name": "EUTELSAT KONNECT",
        "group": "eutelsat",
        "lat": 0.05581318350594846,
        "lon": -166.9793785315021,
        "alt_km": 35788.10332921774,
        "timestamp": "2025-12-11T07:02:23.405329+00:00",
        "meta_object_name": "EUTELSAT KONNECT",
        "meta_object_id": "2020-005B",
        "meta_epoch": "2025-12-10T21:35:38.732640",
        "meta_mean_motion": 1.00267138,
        "meta_eccentricity": 0.00016833,
        "meta_inclination": 0.0689,
        "meta_ra_of_asc_node": 96.4671,
        "meta_arg_of_pericenter": 192.8364,
        "meta_mean_anomaly": 121.6725,
        "meta_ephemeris_type": 0,
        "meta_classification_type": "U",
        "meta_norad_cat_id": 45027,
        "meta_element_set_no": 999,
        "meta_rev_at_epoch": 2244,
        "meta_bstar": 0,
        "meta_mean_motion_dot": 5.4e-07,
        "meta_mean_motion_ddot": 0,
        "tle_line1": "1 45027U 20005B   25344.89975385  .00000054  00000+0  00000+0 0  9994",
        "tle_line2": "2 45027   0.0689  96.4671 0001683 192.8364 121.6725  1.00267138 22441"
      },
      "geometry": {
        "type": "Point",
        "coordinates": [
          -166.9793785315021,
          0.05581318350594846
        ]
      }
    },
    {
      "type": "Feature",
      "properties": {
        "norad_id": 49056,
        "name": "EUTELSAT QUANTUM",
        "group": "eutelsat",
        "lat": -0.02154817159711636,
        "lon": -126.4795135259944,
        "alt_km": 35773.97262046173,
        "timestamp": "2025-12-11T07:02:23.405341+00:00",
        "meta_object_name": "EUTELSAT QUANTUM",
        "meta_object_id": "2021-069B",
        "meta_epoch": "2025-12-10T21:35:38.297184",
        "meta_mean_motion": 1.00271679,
        "meta_eccentricity": 0.00036973,
        "meta_inclination": 0.0176,
        "meta_ra_of_asc_node": 26.625,
        "meta_arg_of_pericenter": 246.353,
        "meta_mean_anomaly": 178.4974,
        "meta_ephemeris_type": 0,
        "meta_classification_type": "U",
        "meta_norad_cat_id": 49056,
        "meta_element_set_no": 999,
        "meta_rev_at_epoch": 1604,
        "meta_bstar": 0,
        "meta_mean_motion_dot": 1.31e-06,
        "meta_mean_motion_ddot": 0,
        "tle_line1": "1 49056U 21069B   25344.89974881  .00000131  00000+0  00000+0 0  9997",
        "tle_line2": "2 49056   0.0176  26.6250 0003697 246.3530 178.4974  1.00271679 16043"
      },
      "geometry": {
        "type": "Point",
        "coordinates": [
          -126.4795135259944,
          -0.02154817159711636
        ]
      }
    },
    {
      "type": "Feature",
      "properties": {
        "norad_id": 53765,
        "name": "EUTELSAT KONNECT VHTS",
        "group": "eutelsat",
        "lat": 0.0552040059218769,
        "lon": -171.46855390433362,
        "alt_km": 35779.34629897005,
        "timestamp": "2025-12-11T07:02:23.405352+00:00",
        "meta_object_name": "EUTELSAT KONNECT VHTS",
        "meta_object_id": "2022-110A",
        "meta_epoch": "2025-12-10T21:43:26.679360",
        "meta_mean_motion": 1.00271283,
        "meta_eccentricity": 0.00025228,
        "meta_inclination": 0.0665,
        "meta_ra_of_asc_node": 100.6412,
        "meta_arg_of_pericenter": 137.7936,
        "meta_mean_anomaly": 170.0043,
        "meta_ephemeris_type": 0,
        "meta_classification_type": "U",
        "meta_norad_cat_id": 53765,
        "meta_element_set_no": 999,
        "meta_rev_at_epoch": 493,
        "meta_bstar": 0,
        "meta_mean_motion_dot": 2.2e-07,
        "meta_mean_motion_ddot": 0,
        "tle_line1": "1 53765U 22110A   25344.90516990  .00000022  00000+0  00000+0 0  9991",
        "tle_line2": "2 53765   0.0665 100.6412 0002522 137.7936 170.0043  1.00271283  4931"
      },
      "geometry": {
        "type": "Point",
        "coordinates": [
          -171.46855390433362,
          0.0552040059218769
        ]
      }
    },
    {
      "type": "Feature",
      "properties": {
        "norad_id": 54048,
        "name": "EUTELSAT HOTBIRD 13F",
        "group": "eutelsat",
        "lat": -0.05965885077416821,
        "lon": -161.1439374147858,
        "alt_km": 35794.021486042344,
        "timestamp": "2025-12-11T07:02:23.405364+00:00",
        "meta_object_name": "EUTELSAT HOTBIRD 13F",
        "meta_object_id": "2022-134A",
        "meta_epoch": "2025-12-10T15:18:56.102976",
        "meta_mean_motion": 1.00270783,
        "meta_eccentricity": 0.00019867,
        "meta_inclination": 0.05,
        "meta_ra_of_asc_node": 291.2152,
        "meta_arg_of_pericenter": 65.1687,
        "meta_mean_anomaly": 325.9772,
        "meta_ephemeris_type": 0,
        "meta_classification_type": "U",
        "meta_norad_cat_id": 54048,
        "meta_element_set_no": 999,
        "meta_rev_at_epoch": 1148,
        "meta_bstar": 0,
        "meta_mean_motion_dot": 9.1e-07,
        "meta_mean_motion_ddot": 0,
        "tle_line1": "1 54048U 22134A   25344.63814934  .00000091  00000+0  00000+0 0  9997",
        "tle_line2": "2 54048   0.0500 291.2152 0001986  65.1687 325.9772  1.00270783 11484"
      },
      "geometry": {
        "type": "Point",
        "coordinates": [
          -161.1439374147858,
          -0.05965885077416821
        ]
      }
    },
    {
      "type": "Feature",
      "properties": {
        "norad_id": 54225,
        "name": "EUTELSAT HOTBIRD 13G",
        "group": "eutelsat",
        "lat": -0.0398753769852555,
        "lon": -161.15293261876866,
        "alt_km": 35778.71820127681,
        "timestamp": "2025-12-11T07:02:23.405376+00:00",
        "meta_object_name": "EUTELSAT HOTBIRD 13G",
        "meta_object_id": "2022-146A",
        "meta_epoch": "2025-12-10T21:35:38.732640",
        "meta_mean_motion": 1.00270676,
        "meta_eccentricity": 0.00018904,
        "meta_inclination": 0.05,
        "meta_ra_of_asc_node": 236.6175,
        "meta_arg_of_pericenter": 306.3847,
        "meta_mean_anomaly": 233.7703,
        "meta_ephemeris_type": 0,
        "meta_classification_type": "U",
        "meta_norad_cat_id": 54225,
        "meta_element_set_no": 999,
        "meta_rev_at_epoch": 557,
        "meta_bstar": 0,
        "meta_mean_motion_dot": 9.2e-07,
        "meta_mean_motion_ddot": 0,
        "tle_line1": "1 54225U 22146A   25344.89975385  .00000092  00000+0  00000+0 0  9994",
        "tle_line2": "2 54225   0.0500 236.6175 0001890 306.3847 233.7703  1.00270676  5575"
      },
      "geometry": {
        "type": "Point",
        "coordinates": [
          -161.15293261876866,
          -0.0398753769852555
        ]
      }
    }
  ]
}